ONEWEB-0363             
1 49289U 21090L   24157.42986869  .00000000  00000+0 -32462-4 0  9996
2 49289  87.9222  62.0241 0001591  82.1973 277.9340 13.20768790132398
ONEWEB-0364             
1 49290U 21090M   24157.46776475  .00000104  00000+0  22379-3 0  9991
2 49290  87.9223  62.0414 0001865  82.6520 277.4825 13.20769583133531
ONEWEB-0365             
1 49291U 21090N   24157.54684097  .00000078  00000+0  16261-3 0  9992
2 49291  87.9144  92.5562 0002178  80.0197 280.1182 13.19723852128602
ONEWEB-0366             
1 49292U 21090P   24157.51584573  .00000049  00000+0  98799-4 0  9993
2 49292  87.8969  77.2800 0002017  84.2058 275.9302 13.14502724130120
ONEWEB-0367             
1 49293U 21090Q   24157.42832033  .00000037  00000+0  59166-4 0  9993
2 49293  87.9220  62.0189 0002023  86.6992 273.4373 13.20770737131911
ONEWEB-0368             
1 49294U 21090R   24157.47724020  .00000083  00000+0  17117-3 0  9995
2 49294  87.9225  62.0392 0001992 105.1004 255.0350 13.20769660133071
ONEWEB-0369             
1 49295U 21090S   24157.54208930  .00000070  00000+0  14193-3 0  9998
2 49295  87.9151  92.5594 0002178  83.5877 276.5504 13.19723366128597
ONEWEB-0370             
1 49296U 21090T   24157.43778317  .00000036  00000+0  56420-4 0  9990
2 49296  87.9222  62.0214 0001989  67.9470 292.1874 13.20773222131958
